{
  "67669": {
    "noradId": "67669",
    "tle": [
      "1 67669C 26022X   26110.91159722  .00031942  00000+0  99144-3 0  1105",
      "2 67669  97.2846 144.6684 0001425  88.0532 297.0424 15.33426452    17"
    ]
  },
  "67670": {
    "noradId": "67670",
    "tle": [
      "1 67670C 26022Y   26110.93312500  .00040323  00000+0  12515-2 0  1103",
      "2 67670  97.2845 144.7077 0001383  88.9928  99.8710 15.33425912    12"
    ]
  },
  "67671": {
    "noradId": "67671",
    "tle": [
      "1 67671C 26022Z   26110.91229167  .00032009  00000+0  99347-3 0  1109",
      "2 67671  97.2847 144.7265 0000871  90.3202  73.6132 15.33428367    12"
    ]
  },
  "67672": {
    "noradId": "67672",
    "tle": [
      "1 67672C 26022AA  26110.93104167  .00022146  00000+0  68740-3 0  1108",
      "2 67672  97.2847 144.7254 0001459  90.1616 132.2287 15.33431343    12"
    ]
  },
  "67693": {
    "noradId": "67693",
    "tle": [
      "1 67693C 26025A   26110.94770833 -.00021119  00000+0 -63814-3 0  1102",
      "2 67693  97.2860 223.0690 0001153  93.5516 164.6358 15.34306953    19"
    ]
  },
  "67694": {
    "noradId": "67694",
    "tle": [
      "1 67694C 26025B   26110.91784722 -.00051200  00000+0 -15886-2 0  1101",
      "2 67694  97.2854 222.9375 0001547  92.7044 112.5856 15.33479863    10"
    ]
  },
  "67695": {
    "noradId": "67695",
    "tle": [
      "1 67695C 26025C   26110.94354167 -.00050509  00000+0 -15673-2 0  1106",
      "2 67695  97.2860 223.0144 0000772 104.4144   2.6391 15.33477955    18"
    ]
  },
  "67696": {
    "noradId": "67696",
    "tle": [
      "1 67696C 26025D   26110.93798611 -.00026389  00000+0 -81861-3 0  1104",
      "2 67696  97.2858 223.0532 0000952 104.0596  77.3323 15.33475134    15"
    ]
  },
  "67697": {
    "noradId": "67697",
    "tle": [
      "1 67697C 26025E   26110.95326389 -.00022994  00000+0 -71334-3 0  1108",
      "2 67697  97.2861 223.0475 0000294  90.3854 130.2979 15.33471473    17"
    ]
  },
  "67698": {
    "noradId": "67698",
    "tle": [
      "1 67698C 26025F   26110.96854167 -.00018607  00000+0 -57723-3 0  1102",
      "2 67698  97.2858 223.0794 0001435  93.2570 241.7098 15.33468831    17"
    ]
  },
  "67699": {
    "noradId": "67699",
    "tle": [
      "1 67699C 26025G   26110.94354167 -.00037271  00000+0 -11564-2 0  1106",
      "2 67699  97.2852 222.9771 0001418  92.1424 284.9046 15.33474308    10"
    ]
  },
  "67700": {
    "noradId": "67700",
    "tle": [
      "1 67700C 26025H   26110.92131944 -.00032673  00000+0 -10137-2 0  1109",
      "2 67700  97.2860 222.9984 0000972  89.1581 270.2926 15.33474802    16"
    ]
  },
  "67701": {
    "noradId": "67701",
    "tle": [
      "1 67701C 26025J   26110.98520833 -.00017783  00000+0 -55183-3 0  1101",
      "2 67701  97.2852 223.0235 0000843 102.5657 159.3569 15.33460250    12"
    ]
  },
  "67702": {
    "noradId": "67702",
    "tle": [
      "1 67702C 26025K   26110.98520833 -.00022761  00000+0 -70633-3 0  1101",
      "2 67702  97.2858 223.1173 0001634  89.2022  37.7204 15.33460773    12"
    ]
  },
  "67703": {
    "noradId": "67703",
    "tle": [
      "1 67703C 26025L   26111.01159722 -.00003002  00000+0 -90715-4 0  1114",
      "2 67703  97.2864 223.0964 0000497 104.9000  61.2868 15.34295942    17"
    ]
  },
  "67704": {
    "noradId": "67704",
    "tle": [
      "1 67704C 26025M   26110.94006944 -.00042370  00000+0 -13147-2 0  1105",
      "2 67704  97.2853 222.9665 0001449  87.0484 255.8521 15.33473357    11"
    ]
  },
  "67705": {
    "noradId": "67705",
    "tle": [
      "1 67705C 26025N   26111.00395833 -.00011404  00000+0 -35388-3 0  1119",
      "2 67705  97.2859 223.0436 0000857  87.4890 292.8792 15.33456592    16"
    ]
  },
  "67706": {
    "noradId": "67706",
    "tle": [
      "1 67706C 26025P   26110.96020833 -.00030600  00000+0 -94950-3 0  1107",
      "2 67706  97.2862 223.0247 0000886  88.6487  95.3554 15.33468187    13"
    ]
  },
  "67707": {
    "noradId": "67707",
    "tle": [
      "1 67707C 26025Q   26111.00743056 -.00005581  00000+0 -17313-3 0  1112",
      "2 67707  97.2858 223.1580 0001267  87.7883 206.7150 15.33463284    17"
    ]
  },
  "67708": {
    "noradId": "67708",
    "tle": [
      "1 67708C 26025R   26110.98243056 -.00018602  00000+0 -57782-3 0  1105",
      "2 67708  97.2860 223.1106 0001282 115.7801 340.7891 15.33428285    17"
    ]
  },
  "67709": {
    "noradId": "67709",
    "tle": [
      "1 67709C 26025S   26110.92965278 -.00056700  00000+0 -17595-2 0  1105",
      "2 67709  97.2859 223.0777 0001587  90.0390 120.3917 15.33478444    18"
    ]
  },
  "67710": {
    "noradId": "67710",
    "tle": [
      "1 67710C 26025T   26110.98937500 -.00017971  00000+0 -55819-3 0  1109",
      "2 67710  97.2864 223.0778 0001150 102.4223 302.5417 15.33429735    14"
    ]
  },
  "67711": {
    "noradId": "67711",
    "tle": [
      "1 67711C 26025U   26110.97479167 -.00031192  00000+0 -96806-3 0  1101",
      "2 67711  97.2856 223.1368 0001497  89.7810  39.6800 15.33461767    10"
    ]
  },
  "67712": {
    "noradId": "67712",
    "tle": [
      "1 67712C 26025V   26110.91090278 -.00032899  00000+0 -10208-2 0  1104",
      "2 67712  97.2861 222.9618 0001057  98.1870 143.8009 15.33469593    18"
    ]
  },
  "67713": {
    "noradId": "67713",
    "tle": [
      "1 67713C 26025W   26110.96020833 -.00039169  00000+0 -12154-2 0  1109",
      "2 67713  97.2856 222.2088 0001254  95.7444 321.4008 15.33473015    13"
    ]
  },
  "67714": {
    "noradId": "67714",
    "tle": [
      "1 67714C 26025X   26110.94840278 -.00036618  00000+0 -11361-2 0  1106",
      "2 67714  97.2866 223.0025 0001454  88.7246  15.1386 15.33475740    12"
    ]
  },
  "67715": {
    "noradId": "67715",
    "tle": [
      "1 67715C 26025Y   26110.94215278 -.00028483  00000+0 -88238-3 0  1102",
      "2 67715  97.2864 223.0280 0001377  96.1804  33.1070 15.33518707    12"
    ]
  },
  "67716": {
    "noradId": "67716",
    "tle": [
      "1 67716C 26025Z   26111.00256944 -.00010830  00000+0 -33610-3 0  1118",
      "2 67716  97.2856 223.0190 0000859  93.6286 204.0731 15.33454872    19"
    ]
  },
  "67717": {
    "noradId": "67717",
    "tle": [
      "1 67717C 26025AA  26110.99562500 -.00010159  00000+0 -31517-3 0  1101",
      "2 67717  97.2863 223.1189 0001121  92.3791  62.0039 15.33464726    19"
    ]
  },
  "67721": {
    "noradId": "67721",
    "tle": [
      "1 67721C 26026A   26110.99840278  .00038286  00000+0  11884-2 0  1101",
      "2 67721  97.2841 164.9416 0001399  86.3426 350.4808 15.33421690    11"
    ]
  },
  "67722": {
    "noradId": "67722",
    "tle": [
      "1 67722C 26026B   26111.00743056  .00051197  00000+0  15891-2 0  1110",
      "2 67722  97.2840 164.9567 0000780  99.4425  42.1816 15.33417321    15"
    ]
  },
  "67723": {
    "noradId": "67723",
    "tle": [
      "1 67723C 26026C   26110.91784722  .00000476  00000+0  14770-4 0  1105",
      "2 67723  97.2840 164.8751 0000706  89.0356 293.3708 15.33441373    10"
    ]
  },
  "67724": {
    "noradId": "67724",
    "tle": [
      "1 67724C 26026D   26110.96020833  .00002533  00000+0  78611-4 0  1107",
      "2 67724  97.2840 164.9240 0001229  96.6341 174.4717 15.33445817    10"
    ]
  },
  "67725": {
    "noradId": "67725",
    "tle": [
      "1 67725C 26026E   26110.91854167 -.00009362  00000+0 -29056-3 0  1105",
      "2 67725  97.2842 164.8883 0001334  95.1065 321.1333 15.33449069    17"
    ]
  },
  "67726": {
    "noradId": "67726",
    "tle": [
      "1 67726C 26026F   26110.93659722  .00004470  00000+0  13876-3 0  1104",
      "2 67726  97.2842 164.9124 0000587  90.6797  80.1654 15.33441117    12"
    ]
  },
  "67727": {
    "noradId": "67727",
    "tle": [
      "1 67727C 26026G   26110.96923611 -.00007830  00000+0 -24299-3 0  1105",
      "2 67727  97.2843 164.9507 0001167  98.9299 266.9792 15.33452633    14"
    ]
  },
  "67728": {
    "noradId": "67728",
    "tle": [
      "1 67728C 26026H   26111.01229167 -.00007591  00000+0 -23554-3 0  1116",
      "2 67728  97.2845 165.0012 0001335  84.1291 174.2921 15.33457459    12"
    ]
  },
  "67729": {
    "noradId": "67729",
    "tle": [
      "1 67729C 26026J   26110.92201389  .00004180  00000+0  12970-3 0  1100",
      "2 67729  97.2846 164.9247 0000776  83.5423  66.8379 15.33449019    16"
    ]
  },
  "67730": {
    "noradId": "67730",
    "tle": [
      "1 67730C 26026K   26110.98937500  .00006849  00000+0  21256-3 0  1100",
      "2 67730  97.2845 164.9848 0001042  80.5808  66.4251 15.33444418    18"
    ]
  },
  "67731": {
    "noradId": "67731",
    "tle": [
      "1 67731C 26026L   26110.96993056  .00035830  00000+0  11126-2 0  1103",
      "2 67731  97.2841 164.9786 0001187  89.5813 340.1841 15.33411553    12"
    ]
  },
  "67732": {
    "noradId": "67732",
    "tle": [
      "1 67732C 26026M   26111.01229167  .00017644  00000+0  54759-3 0  1110",
      "2 67732  97.2846 165.0267 0001376  94.0900 224.3549 15.33437411    11"
    ]
  },
  "67733": {
    "noradId": "67733",
    "tle": [
      "1 67733C 26026N   26110.94076389  .00013679  00000+0  41343-3 0  1106",
      "2 67733  97.2845 164.9569 0000917  88.4416 208.1189 15.34280761    18"
    ]
  },
  "67734": {
    "noradId": "67734",
    "tle": [
      "1 67734C 26026P   26110.98729167  .00013786  00000+0  42782-3 0  1107",
      "2 67734  97.2845 165.0134 0001102  79.9267 130.5929 15.33441961    15"
    ]
  },
  "67735": {
    "noradId": "67735",
    "tle": [
      "1 67735C 26026Q   26110.96506944  .00021539  00000+0  66853-3 0  1102",
      "2 67735  97.2845 165.0058 0001011  95.0622  22.8639 15.33433444    12"
    ]
  },
  "67736": {
    "noradId": "67736",
    "tle": [
      "1 67736C 26026R   26110.94076389  .00013051  00000+0  40507-3 0  1104",
      "2 67736  97.2844 164.9754 0001496  94.7000 234.1338 15.33437521    10"
    ]
  }
}